[{"OBJECT_NAME":"STARLINK-2315","OBJECT_ID":"2021-018C","EPOCH":"2022-08-18T10:10:14.327616","MEAN_MOTION":15.06403875,"ECCENTRICITY":0.0001271,"INCLINATION":53.0538,"RA_OF_ASC_NODE":304.2614,"ARG_OF_PERICENTER":68.019,"MEAN_ANOMALY":292.0934,"EPHEMERIS_TYPE":0,"CLASSIFICATION_TYPE":"U","NORAD_CAT_ID":47789,"ELEMENT_SET_NO":999,"REV_AT_EPOCH":8070,"BSTAR":0.00011151,"MEAN_MOTION_DOT":1.38e-5,"MEAN_MOTION_DDOT":0},{"OBJECT_NAME":"STARLINK-2319","OBJECT_ID":"2021-018D","EPOCH":"2022-08-18T15:56:34.764864","MEAN_MOTION":15.06401907,"ECCENTRICITY":0.0001241,"INCLINATION":53.0544,"RA_OF_ASC_NODE":293.1774,"ARG_OF_PERICENTER":82.7267,"MEAN_ANOMALY":277.3862,"EPHEMERIS_TYPE":0,"CLASSIFICATION_TYPE":"U","NORAD_CAT_ID":47790,"ELEMENT_SET_NO":999,"REV_AT_EPOCH":8123,"BSTAR":5.5736e-5,"MEAN_MOTION_DOT":5.49e-6,"MEAN_MOTION_DDOT":0},{"OBJECT_NAME":"STARLINK-2322","OBJECT_ID":"2021-018E","EPOCH":"2022-08-18T11:37:49.280160","MEAN_MOTION":15.06403009,"ECCENTRICITY":0.0001316,"INCLINATION":53.0547,"RA_OF_ASC_NODE":323.9701,"ARG_OF_PERICENTER":88.4206,"MEAN_ANOMALY":271.6933,"EPHEMERIS_TYPE":0,"CLASSIFICATION_TYPE":"U","NORAD_CAT_ID":47791,"ELEMENT_SET_NO":999,"REV_AT_EPOCH":8043,"BSTAR":8.8836e-5,"MEAN_MOTION_DOT":1.042e-5,"MEAN_MOTION_DDOT":0},{"OBJECT_NAME":"STARLINK-2334","OBJECT_ID":"2021-018F","EPOCH":"2022-08-19T03:51:47.003616","MEAN_MOTION":15.06412044,"ECCENTRICITY":0.0001268,"INCLINATION":53.0558,"RA_OF_ASC_NODE":300.9509,"ARG_OF_PERICENTER":74.0569,"MEAN_ANOMALY":286.056,"EPHEMERIS_TYPE":0,"CLASSIFICATION_TYPE":"U","NORAD_CAT_ID":47792,"ELEMENT_SET_NO":999,"REV_AT_EPOCH":8081,"BSTAR":0.00015219,"MEAN_MOTION_DOT":1.987e-5,"MEAN_MOTION_DDOT":0},{"OBJECT_NAME":"STARLINK-2338","OBJECT_ID":"2021-018G","EPOCH":"2022-08-18T13:53:10.149216","MEAN_MOTION":15.06407165,"ECCENTRICITY":0.00013,"INCLINATION":53.0549,"RA_OF_ASC_NODE":303.5671,"ARG_OF_PERICENTER":83.2489,"MEAN_ANOMALY":276.8648,"EPHEMERIS_TYPE":0,"CLASSIFICATION_TYPE":"U","NORAD_CAT_ID":47793,"ELEMENT_SET_NO":999,"REV_AT_EPOCH":8106,"BSTAR":9.5304e-5,"MEAN_MOTION_DOT":1.139e-5,"MEAN_MOTION_DDOT":0},{"OBJECT_NAME":"STARLINK-2341","OBJECT_ID":"2021-018H","EPOCH":"2022-08-18T13:58:28.998912","MEAN_MOTION":15.06397472,"ECCENTRICITY":0.0001382,"INCLINATION":53.0553,"RA_OF_ASC_NODE":303.5506,"ARG_OF_PERICENTER":73.7896,"MEAN_ANOMALY":286.3245,"EPHEMERIS_TYPE":0,"CLASSIFICATION_TYPE":"U","NORAD_CAT_ID":47794,"ELEMENT_SET_NO":999,"REV_AT_EPOCH":8107,"BSTAR":4.5382e-5,"MEAN_MOTION_DOT":3.95e-6,"MEAN_MOTION_DDOT":0},{"OBJECT_NAME":"STARLINK-2347","OBJECT_ID":"2021-018J","EPOCH":"2022-08-18T16:53:37.948416","MEAN_MOTION":15.06403107,"ECCENTRICITY":0.0001349,"INCLINATION":53.0557,"RA_OF_ASC_NODE":303.0041,"ARG_OF_PERICENTER":94.545,"MEAN_ANOMALY":265.5693,"EPHEMERIS_TYPE":0,"CLASSIFICATION_TYPE":"U","NORAD_CAT_ID":47795,"ELEMENT_SET_NO":999,"REV_AT_EPOCH":8114,"BSTAR":4.577e-5,"MEAN_MOTION_DOT":4.0e-6,"MEAN_MOTION_DDOT":0},{"OBJECT_NAME":"STARLINK-2373","OBJECT_ID":"2021-018K","EPOCH":"2022-08-18T17:14:51.998496","MEAN_MOTION":15.06401646,"ECCENTRICITY":0.0001293,"INCLINATION":53.0546,"RA_OF_ASC_NODE":302.9336,"ARG_OF_PERICENTER":81.965,"MEAN_ANOMALY":278.1486,"EPHEMERIS_TYPE":0,"CLASSIFICATION_TYPE":"U","NORAD_CAT_ID":47796,"ELEMENT_SET_NO":999,"REV_AT_EPOCH":8109,"BSTAR":8.1839e-5,"MEAN_MOTION_DOT":9.38e-6,"MEAN_MOTION_DDOT":0},{"OBJECT_NAME":"STARLINK-2377","OBJECT_ID":"2021-018L","EPOCH":"2022-08-18T18:07:16.864320","MEAN_MOTION":15.06400815,"ECCENTRICITY":0.0001321,"INCLINATION":53.0569,"RA_OF_ASC_NODE":327.7697,"ARG_OF_PERICENTER":101.0772,"MEAN_ANOMALY":259.0366,"EPHEMERIS_TYPE":0,"CLASSIFICATION_TYPE":"U","NORAD_CAT_ID":47797,"ELEMENT_SET_NO":999,"REV_AT_EPOCH":8074,"BSTAR":7.7016e-5,"MEAN_MOTION_DOT":8.66e-6,"MEAN_MOTION_DDOT":0},{"OBJECT_NAME":"STARLINK-2379","OBJECT_ID":"2021-018M","EPOCH":"2022-08-18T11:08:38.023008","MEAN_MOTION":15.06394449,"ECCENTRICITY":0.0001456,"INCLINATION":53.0557,"RA_OF_ASC_NODE":304.0797,"ARG_OF_PERICENTER":96.0748,"MEAN_ANOMALY":264.0407,"EPHEMERIS_TYPE":0,"CLASSIFICATION_TYPE":"U","NORAD_CAT_ID":47798,"ELEMENT_SET_NO":999,"REV_AT_EPOCH":8105,"BSTAR":-9.0767e-6,"MEAN_MOTION_DOT":-4.17e-6,"MEAN_MOTION_DDOT":0},{"OBJECT_NAME":"STARLINK-2380","OBJECT_ID":"2021-018N","EPOCH":"2022-08-18T11:03:19.912032","MEAN_MOTION":15.06397832,"ECCENTRICITY":0.0001354,"INCLINATION":53.0549,"RA_OF_ASC_NODE":304.0809,"ARG_OF_PERICENTER":103.0739,"MEAN_ANOMALY":257.0401,"EPHEMERIS_TYPE":0,"CLASSIFICATION_TYPE":"U","NORAD_CAT_ID":47799,"ELEMENT_SET_NO":999,"REV_AT_EPOCH":8070,"BSTAR":0.000156,"MEAN_MOTION_DOT":2.043e-5,"MEAN_MOTION_DDOT":0},{"OBJECT_NAME":"STARLINK-2381","OBJECT_ID":"2021-018P","EPOCH":"2022-08-18T16:21:46.887552","MEAN_MOTION":15.06419876,"ECCENTRICITY":0.0001375,"INCLINATION":53.054,"RA_OF_ASC_NODE":303.1002,"ARG_OF_PERICENTER":77.5901,"MEAN_ANOMALY":282.5241,"EPHEMERIS_TYPE":0,"CLASSIFICATION_TYPE":"U","NORAD_CAT_ID":47800,"ELEMENT_SET_NO":999,"REV_AT_EPOCH":8108,"BSTAR":0.00077656,"MEAN_MOTION_DOT":0.0001131,"MEAN_MOTION_DDOT":0},{"OBJECT_NAME":"STARLINK-2382","OBJECT_ID":"2021-018Q","EPOCH":"2022-08-18T14:00:28.758816","MEAN_MOTION":15.06403334,"ECCENTRICITY":0.0001401,"INCLINATION":53.0566,"RA_OF_ASC_NODE":308.6106,"ARG_OF_PERICENTER":89.558,"MEAN_ANOMALY":270.5569,"EPHEMERIS_TYPE":0,"CLASSIFICATION_TYPE":"U","NORAD_CAT_ID":47801,"ELEMENT_SET_NO":999,"REV_AT_EPOCH":8100,"BSTAR":0.00013429,"MEAN_MOTION_DOT":1.72e-5,"MEAN_MOTION_DDOT":0},{"OBJECT_NAME":"STARLINK-2383","OBJECT_ID":"2021-018R","EPOCH":"2022-08-18T11:55:44.160096","MEAN_MOTION":15.0640128,"ECCENTRICITY":0.0001323,"INCLINATION":53.0567,"RA_OF_ASC_NODE":328.9176,"ARG_OF_PERICENTER":100.5239,"MEAN_ANOMALY":259.5899,"EPHEMERIS_TYPE":0,"CLASSIFICATION_TYPE":"U","NORAD_CAT_ID":47802,"ELEMENT_SET_NO":999,"REV_AT_EPOCH":8036,"BSTAR":3.1819e-5,"MEAN_MOTION_DOT":1.93e-6,"MEAN_MOTION_DDOT":0},{"OBJECT_NAME":"STARLINK-2384","OBJECT_ID":"2021-018S","EPOCH":"2022-08-18T10:15:32.746176","MEAN_MOTION":15.06404819,"ECCENTRICITY":0.0001256,"INCLINATION":53.0549,"RA_OF_ASC_NODE":304.2473,"ARG_OF_PERICENTER":90.687,"MEAN_ANOMALY":269.4263,"EPHEMERIS_TYPE":0,"CLASSIFICATION_TYPE":"U","NORAD_CAT_ID":47803,"ELEMENT_SET_NO":999,"REV_AT_EPOCH":8104,"BSTAR":0.00021428,"MEAN_MOTION_DOT":2.912e-5,"MEAN_MOTION_DDOT":0},{"OBJECT_NAME":"STARLINK-2385","OBJECT_ID":"2021-018T","EPOCH":"2022-08-18T16:58:56.646048","MEAN_MOTION":15.06400104,"ECCENTRICITY":0.0001331,"INCLINATION":53.0552,"RA_OF_ASC_NODE":302.987,"ARG_OF_PERICENTER":82.5782,"MEAN_ANOMALY":277.5358,"EPHEMERIS_TYPE":0,"CLASSIFICATION_TYPE":"U","NORAD_CAT_ID":47804,"ELEMENT_SET_NO":999,"REV_AT_EPOCH":8108,"BSTAR":7.7153e-5,"MEAN_MOTION_DOT":8.68e-6,"MEAN_MOTION_DDOT":0},{"OBJECT_NAME":"STARLINK-2386","OBJECT_ID":"2021-018U","EPOCH":"2022-08-18T14:35:39.890112","MEAN_MOTION":15.06406831,"ECCENTRICITY":0.0001388,"INCLINATION":53.054,"RA_OF_ASC_NODE":303.6739,"ARG_OF_PERICENTER":103.6146,"MEAN_ANOMALY":256.4998,"EPHEMERIS_TYPE":0,"CLASSIFICATION_TYPE":"U","NORAD_CAT_ID":47805,"ELEMENT_SET_NO":999,"REV_AT_EPOCH":8107,"BSTAR":0.00012849,"MEAN_MOTION_DOT":1.633e-5,"MEAN_MOTION_DDOT":0},{"OBJECT_NAME":"STARLINK-2387","OBJECT_ID":"2021-018V","EPOCH":"2022-08-18T14:41:36.563136","MEAN_MOTION":15.0640554,"ECCENTRICITY":0.0001583,"INCLINATION":53.0542,"RA_OF_ASC_NODE":318.4193,"ARG_OF_PERICENTER":50.8094,"MEAN_ANOMALY":309.3036,"EPHEMERIS_TYPE":0,"CLASSIFICATION_TYPE":"U","NORAD_CAT_ID":47806,"ELEMENT_SET_NO":999,"REV_AT_EPOCH":8092,"BSTAR":0.00027831,"MEAN_MOTION_DOT":3.867e-5,"MEAN_MOTION_DDOT":0},{"OBJECT_NAME":"STARLINK-2388","OBJECT_ID":"2021-018W","EPOCH":"2022-08-18T14:26:20.381856","MEAN_MOTION":15.0640503,"ECCENTRICITY":0.0001351,"INCLINATION":53.0549,"RA_OF_ASC_NODE":293.4649,"ARG_OF_PERICENTER":75.7932,"MEAN_ANOMALY":284.3207,"EPHEMERIS_TYPE":0,"CLASSIFICATION_TYPE":"U","NORAD_CAT_ID":47807,"ELEMENT_SET_NO":999,"REV_AT_EPOCH":8120,"BSTAR":0.00013927,"MEAN_MOTION_DOT":1.794e-5,"MEAN_MOTION_DDOT":0},{"OBJECT_NAME":"STARLINK-2389","OBJECT_ID":"2021-018X","EPOCH":"2022-08-19T00:41:22.316064","MEAN_MOTION":15.06402977,"ECCENTRICITY":0.0001418,"INCLINATION":53.0555,"RA_OF_ASC_NODE":316.5429,"ARG_OF_PERICENTER":96.7635,"MEAN_ANOMALY":263.3515,"EPHEMERIS_TYPE":0,"CLASSIFICATION_TYPE":"U","NORAD_CAT_ID":47808,"ELEMENT_SET_NO":999,"REV_AT_EPOCH":8058,"BSTAR":0.00014776,"MEAN_MOTION_DOT":1.92e-5,"MEAN_MOTION_DDOT":0},{"OBJECT_NAME":"STARLINK-2390","OBJECT_ID":"2021-018Y","EPOCH":"2022-08-18T18:25:08.998464","MEAN_MOTION":15.06409266,"ECCENTRICITY":0.0001153,"INCLINATION":53.0548,"RA_OF_ASC_NODE":322.7082,"ARG_OF_PERICENTER":72.1244,"MEAN_ANOMALY":287.9871,"EPHEMERIS_TYPE":0,"CLASSIFICATION_TYPE":"U","NORAD_CAT_ID":47809,"ELEMENT_SET_NO":999,"REV_AT_EPOCH":8087,"BSTAR":0.00023416,"MEAN_MOTION_DOT":3.209e-5,"MEAN_MOTION_DDOT":0},{"OBJECT_NAME":"STARLINK-2391","OBJECT_ID":"2021-018Z","EPOCH":"2022-08-19T01:24:29.927808","MEAN_MOTION":15.06407873,"ECCENTRICITY":0.0001325,"INCLINATION":53.0544,"RA_OF_ASC_NODE":331.4065,"ARG_OF_PERICENTER":97.921,"MEAN_ANOMALY":262.1929,"EPHEMERIS_TYPE":0,"CLASSIFICATION_TYPE":"U","NORAD_CAT_ID":47810,"ELEMENT_SET_NO":999,"REV_AT_EPOCH":8037,"BSTAR":0.00022625,"MEAN_MOTION_DOT":3.091e-5,"MEAN_MOTION_DDOT":0},{"OBJECT_NAME":"STARLINK-2392","OBJECT_ID":"2021-018AA","EPOCH":"2022-08-18T13:37:14.827872","MEAN_MOTION":15.0640998,"ECCENTRICITY":0.0001274,"INCLINATION":53.0543,"RA_OF_ASC_NODE":303.6116,"ARG_OF_PERICENTER":89.4201,"MEAN_ANOMALY":270.6934,"EPHEMERIS_TYPE":0,"CLASSIFICATION_TYPE":"U","NORAD_CAT_ID":47811,"ELEMENT_SET_NO":999,"REV_AT_EPOCH":8072,"BSTAR":0.00034718,"MEAN_MOTION_DOT":4.895e-5,"MEAN_MOTION_DDOT":0},{"OBJECT_NAME":"STARLINK-2393","OBJECT_ID":"2021-018AB","EPOCH":"2022-08-18T11:20:34.487232","MEAN_MOTION":15.0639999,"ECCENTRICITY":0.0001382,"INCLINATION":53.055,"RA_OF_ASC_NODE":334.0351,"ARG_OF_PERICENTER":70.1039,"MEAN_ANOMALY":290.0099,"EPHEMERIS_TYPE":0,"CLASSIFICATION_TYPE":"U","NORAD_CAT_ID":47812,"ELEMENT_SET_NO":999,"REV_AT_EPOCH":8028,"BSTAR":0.0001629,"MEAN_MOTION_DOT":2.146e-5,"MEAN_MOTION_DDOT":0}]